STARLINK-4286           
1 52990U 22076E   26078.67967845 -.00000351  00000+0 -39461-5 0  9995
2 52990  53.2184  59.2727 0001609  79.0293 281.0881 15.08840100204212
STARLINK-4285           
1 52991U 22076F   26078.67599517  .00000344  00000+0  39691-4 0  9997
2 52991  53.2180  59.2890 0001401  86.0030 274.1122 15.08843316204210
STARLINK-4269           
1 52992U 22076G   26078.67329782 -.00001740  00000+0 -91320-4 0  9993
2 52992  53.2180  59.3112 0000964 106.5374 253.5724 15.08820922204218
STARLINK-4256           
1 52994U 22076J   26078.63643931  .00000116  00000+0  25393-4 0  9997
2 52994  53.2173  49.4672 0001324  85.0953 275.0190 15.08839017204343
STARLINK-4296           
1 52995U 22076K   26078.29787870  .00000597  00000+0  55563-4 0  9996
2 52995  53.2171  50.9856 0001183  82.3378 277.7749 15.08838906204296
STARLINK-4295           
1 52996U 22076L   26078.19584677  .00000764  00000+0  66092-4 0  9991
2 52996  53.2191  51.7227 0001256  86.7450 273.3686 15.08824398204270
STARLINK-4254           
1 52998U 22076N   26078.61802980  .00000575  00000+0  54196-4 0  9992
2 52998  53.2173  49.4617 0001287  85.6070 274.5069 15.08836755204345
STARLINK-4217           
1 52999U 22076P   26078.61067933 -.00000474  00000+0 -11700-4 0  9998
2 52999  53.2180  49.5835 0001453  86.8457 273.2701 15.08837885204348
STARLINK-4194           
1 53000U 22076Q   26078.62540051  .00000881  00000+0  73422-4 0  9999
2 53000  53.2176  49.5176 0001225  85.6330 274.4803 15.08838322204342
STARLINK-4190           
1 53001U 22076R   26078.60699253  .00006256  00000+0  41107-3 0  9993
2 53001  53.2177  49.5974 0001319  90.0918 270.0225 15.08816568204344
STARLINK-4121           
1 53002U 22076S   26078.62171791  .00000352  00000+0  40221-4 0  9996
2 53002  53.2182  49.5339 0001381  87.0105 273.1045 15.08836696204347
STARLINK-4255           
1 53003U 22076T   26078.20219509  .00000443  00000+0  45916-4 0  9998
2 53003  53.2178  51.4159 0001390  82.2627 277.8523 15.08840922204283
STARLINK-4253           
1 53004U 22076U   26078.61435031  .00000176  00000+0  29139-4 0  9996
2 53004  53.2167  49.5673 0001404  96.5110 263.6042 15.08838229204345
STARLINK-4288           
1 53005U 22076V   26078.19852520  .00000445  00000+0  46047-4 0  9992
2 53005  53.2170  51.4326 0001319  86.8277 273.2866 15.08833680204288
STARLINK-4290           
1 53006U 22076W   26078.86828104 -.00000187  00000+0  63169-5 0  9997
2 53006  53.2179  48.4256 0001301  86.2936 273.8205 15.08836752204380
STARLINK-4215           
1 53007U 22076X   26078.65484513  .00000987  00000+0  80040-4 0  9990
2 53007  53.2185  49.3837 0001147  87.4184 272.6939 15.08848737204353
STARLINK-4275           
1 53008U 22076Y   26078.19483750 -.00000620  00000+0 -20862-4 0  9994
2 53008  53.2184  51.4379 0001558  89.3528 270.7642 15.08842021204289
