[{"OBJECT_NAME":"STARLINK-4286","OBJECT_ID":"2022-076E","EPOCH":"2026-03-19T16:18:44.218080","MEAN_MOTION":15.088401,"ECCENTRICITY":0.0001609,"INCLINATION":53.2184,"RA_OF_ASC_NODE":59.2727,"ARG_OF_PERICENTER":79.0293,"MEAN_ANOMALY":281.0881,"EPHEMERIS_TYPE":0,"CLASSIFICATION_TYPE":"U","NORAD_CAT_ID":52990,"ELEMENT_SET_NO":999,"REV_AT_EPOCH":20421,"BSTAR":-3.9461e-6,"MEAN_MOTION_DOT":-3.51e-6,"MEAN_MOTION_DDOT":0},{"OBJECT_NAME":"STARLINK-4285","OBJECT_ID":"2022-076F","EPOCH":"2026-03-19T16:13:25.982688","MEAN_MOTION":15.08843316,"ECCENTRICITY":0.0001401,"INCLINATION":53.218,"RA_OF_ASC_NODE":59.289,"ARG_OF_PERICENTER":86.003,"MEAN_ANOMALY":274.1122,"EPHEMERIS_TYPE":0,"CLASSIFICATION_TYPE":"U","NORAD_CAT_ID":52991,"ELEMENT_SET_NO":999,"REV_AT_EPOCH":20421,"BSTAR":3.9691e-5,"MEAN_MOTION_DOT":3.44e-6,"MEAN_MOTION_DDOT":0},{"OBJECT_NAME":"STARLINK-4269","OBJECT_ID":"2022-076G","EPOCH":"2026-03-19T16:09:32.931648","MEAN_MOTION":15.08820922,"ECCENTRICITY":9.64e-5,"INCLINATION":53.218,"RA_OF_ASC_NODE":59.3112,"ARG_OF_PERICENTER":106.5374,"MEAN_ANOMALY":253.5724,"EPHEMERIS_TYPE":0,"CLASSIFICATION_TYPE":"U","NORAD_CAT_ID":52992,"ELEMENT_SET_NO":999,"REV_AT_EPOCH":20421,"BSTAR":-9.132e-5,"MEAN_MOTION_DOT":-1.74e-5,"MEAN_MOTION_DDOT":0},{"OBJECT_NAME":"STARLINK-4256","OBJECT_ID":"2022-076J","EPOCH":"2026-03-19T15:16:28.356384","MEAN_MOTION":15.08839017,"ECCENTRICITY":0.0001324,"INCLINATION":53.2173,"RA_OF_ASC_NODE":49.4672,"ARG_OF_PERICENTER":85.0953,"MEAN_ANOMALY":275.019,"EPHEMERIS_TYPE":0,"CLASSIFICATION_TYPE":"U","NORAD_CAT_ID":52994,"ELEMENT_SET_NO":999,"REV_AT_EPOCH":20434,"BSTAR":2.5393e-5,"MEAN_MOTION_DOT":1.16e-6,"MEAN_MOTION_DDOT":0},{"OBJECT_NAME":"STARLINK-4296","OBJECT_ID":"2022-076K","EPOCH":"2026-03-19T07:08:56.719680","MEAN_MOTION":15.08838906,"ECCENTRICITY":0.00011831,"INCLINATION":53.2171,"RA_OF_ASC_NODE":50.9856,"ARG_OF_PERICENTER":82.3378,"MEAN_ANOMALY":277.7749,"EPHEMERIS_TYPE":0,"CLASSIFICATION_TYPE":"U","NORAD_CAT_ID":52995,"ELEMENT_SET_NO":999,"REV_AT_EPOCH":20429,"BSTAR":5.5562739e-5,"MEAN_MOTION_DOT":5.97e-6,"MEAN_MOTION_DDOT":0},{"OBJECT_NAME":"STARLINK-4295","OBJECT_ID":"2022-076L","EPOCH":"2026-03-19T04:42:01.160928","MEAN_MOTION":15.08824398,"ECCENTRICITY":0.00012561,"INCLINATION":53.2191,"RA_OF_ASC_NODE":51.7227,"ARG_OF_PERICENTER":86.745,"MEAN_ANOMALY":273.3686,"EPHEMERIS_TYPE":0,"CLASSIFICATION_TYPE":"U","NORAD_CAT_ID":52996,"ELEMENT_SET_NO":999,"REV_AT_EPOCH":20427,"BSTAR":6.6091812e-5,"MEAN_MOTION_DOT":7.64e-6,"MEAN_MOTION_DDOT":0},{"OBJECT_NAME":"STARLINK-4254","OBJECT_ID":"2022-076N","EPOCH":"2026-03-19T14:49:57.774720","MEAN_MOTION":15.08836755,"ECCENTRICITY":0.0001287,"INCLINATION":53.2173,"RA_OF_ASC_NODE":49.4617,"ARG_OF_PERICENTER":85.607,"MEAN_ANOMALY":274.5069,"EPHEMERIS_TYPE":0,"CLASSIFICATION_TYPE":"U","NORAD_CAT_ID":52998,"ELEMENT_SET_NO":999,"REV_AT_EPOCH":20434,"BSTAR":5.4196e-5,"MEAN_MOTION_DOT":5.75e-6,"MEAN_MOTION_DDOT":0},{"OBJECT_NAME":"STARLINK-4217","OBJECT_ID":"2022-076P","EPOCH":"2026-03-19T14:39:22.694112","MEAN_MOTION":15.08837885,"ECCENTRICITY":0.0001453,"INCLINATION":53.218,"RA_OF_ASC_NODE":49.5835,"ARG_OF_PERICENTER":86.8457,"MEAN_ANOMALY":273.2701,"EPHEMERIS_TYPE":0,"CLASSIFICATION_TYPE":"U","NORAD_CAT_ID":52999,"ELEMENT_SET_NO":999,"REV_AT_EPOCH":20434,"BSTAR":-1.17e-5,"MEAN_MOTION_DOT":-4.74e-6,"MEAN_MOTION_DDOT":0},{"OBJECT_NAME":"STARLINK-4194","OBJECT_ID":"2022-076Q","EPOCH":"2026-03-19T15:00:34.604064","MEAN_MOTION":15.08838322,"ECCENTRICITY":0.0001225,"INCLINATION":53.2176,"RA_OF_ASC_NODE":49.5176,"ARG_OF_PERICENTER":85.633,"MEAN_ANOMALY":274.4803,"EPHEMERIS_TYPE":0,"CLASSIFICATION_TYPE":"U","NORAD_CAT_ID":53000,"ELEMENT_SET_NO":999,"REV_AT_EPOCH":20434,"BSTAR":7.3422e-5,"MEAN_MOTION_DOT":8.81e-6,"MEAN_MOTION_DDOT":0},{"OBJECT_NAME":"STARLINK-4190","OBJECT_ID":"2022-076R","EPOCH":"2026-03-19T14:34:04.154592","MEAN_MOTION":15.08816568,"ECCENTRICITY":0.0001319,"INCLINATION":53.2177,"RA_OF_ASC_NODE":49.5974,"ARG_OF_PERICENTER":90.0918,"MEAN_ANOMALY":270.0225,"EPHEMERIS_TYPE":0,"CLASSIFICATION_TYPE":"U","NORAD_CAT_ID":53001,"ELEMENT_SET_NO":999,"REV_AT_EPOCH":20434,"BSTAR":0.00041107,"MEAN_MOTION_DOT":6.256e-5,"MEAN_MOTION_DDOT":0},{"OBJECT_NAME":"STARLINK-4121","OBJECT_ID":"2022-076S","EPOCH":"2026-03-19T14:55:16.427424","MEAN_MOTION":15.08836696,"ECCENTRICITY":0.0001381,"INCLINATION":53.2182,"RA_OF_ASC_NODE":49.5339,"ARG_OF_PERICENTER":87.0105,"MEAN_ANOMALY":273.1045,"EPHEMERIS_TYPE":0,"CLASSIFICATION_TYPE":"U","NORAD_CAT_ID":53002,"ELEMENT_SET_NO":999,"REV_AT_EPOCH":20434,"BSTAR":4.0221e-5,"MEAN_MOTION_DOT":3.52e-6,"MEAN_MOTION_DDOT":0},{"OBJECT_NAME":"STARLINK-4255","OBJECT_ID":"2022-076T","EPOCH":"2026-03-19T04:51:09.655776","MEAN_MOTION":15.08840922,"ECCENTRICITY":0.00013907,"INCLINATION":53.2178,"RA_OF_ASC_NODE":51.4159,"ARG_OF_PERICENTER":82.2627,"MEAN_ANOMALY":277.8523,"EPHEMERIS_TYPE":0,"CLASSIFICATION_TYPE":"U","NORAD_CAT_ID":53003,"ELEMENT_SET_NO":999,"REV_AT_EPOCH":20428,"BSTAR":4.5915963e-5,"MEAN_MOTION_DOT":4.43e-6,"MEAN_MOTION_DDOT":0},{"OBJECT_NAME":"STARLINK-4253","OBJECT_ID":"2022-076U","EPOCH":"2026-03-19T14:44:39.866784","MEAN_MOTION":15.08838229,"ECCENTRICITY":0.0001404,"INCLINATION":53.2167,"RA_OF_ASC_NODE":49.5673,"ARG_OF_PERICENTER":96.511,"MEAN_ANOMALY":263.6042,"EPHEMERIS_TYPE":0,"CLASSIFICATION_TYPE":"U","NORAD_CAT_ID":53004,"ELEMENT_SET_NO":999,"REV_AT_EPOCH":20434,"BSTAR":2.9139e-5,"MEAN_MOTION_DOT":1.76e-6,"MEAN_MOTION_DDOT":0},{"OBJECT_NAME":"STARLINK-4288","OBJECT_ID":"2022-076V","EPOCH":"2026-03-19T04:45:52.577280","MEAN_MOTION":15.0883368,"ECCENTRICITY":0.00013198,"INCLINATION":53.217,"RA_OF_ASC_NODE":51.4326,"ARG_OF_PERICENTER":86.8277,"MEAN_ANOMALY":273.2866,"EPHEMERIS_TYPE":0,"CLASSIFICATION_TYPE":"U","NORAD_CAT_ID":53005,"ELEMENT_SET_NO":999,"REV_AT_EPOCH":20428,"BSTAR":4.6046962e-5,"MEAN_MOTION_DOT":4.45e-6,"MEAN_MOTION_DDOT":0},{"OBJECT_NAME":"STARLINK-4290","OBJECT_ID":"2022-076W","EPOCH":"2026-03-19T20:50:19.481856","MEAN_MOTION":15.08836752,"ECCENTRICITY":0.0001301,"INCLINATION":53.2179,"RA_OF_ASC_NODE":48.4256,"ARG_OF_PERICENTER":86.2936,"MEAN_ANOMALY":273.8205,"EPHEMERIS_TYPE":0,"CLASSIFICATION_TYPE":"U","NORAD_CAT_ID":53006,"ELEMENT_SET_NO":999,"REV_AT_EPOCH":20438,"BSTAR":6.3169e-6,"MEAN_MOTION_DOT":-1.87e-6,"MEAN_MOTION_DDOT":0},{"OBJECT_NAME":"STARLINK-4215","OBJECT_ID":"2022-076X","EPOCH":"2026-03-19T15:42:58.619232","MEAN_MOTION":15.08848737,"ECCENTRICITY":0.0001147,"INCLINATION":53.2185,"RA_OF_ASC_NODE":49.3837,"ARG_OF_PERICENTER":87.4184,"MEAN_ANOMALY":272.6939,"EPHEMERIS_TYPE":0,"CLASSIFICATION_TYPE":"U","NORAD_CAT_ID":53007,"ELEMENT_SET_NO":999,"REV_AT_EPOCH":20435,"BSTAR":8.004e-5,"MEAN_MOTION_DOT":9.87e-6,"MEAN_MOTION_DDOT":0},{"OBJECT_NAME":"STARLINK-4275","OBJECT_ID":"2022-076Y","EPOCH":"2026-03-19T04:40:33.960000","MEAN_MOTION":15.08842021,"ECCENTRICITY":0.00015585,"INCLINATION":53.2184,"RA_OF_ASC_NODE":51.4379,"ARG_OF_PERICENTER":89.3528,"MEAN_ANOMALY":270.7642,"EPHEMERIS_TYPE":0,"CLASSIFICATION_TYPE":"U","NORAD_CAT_ID":53008,"ELEMENT_SET_NO":999,"REV_AT_EPOCH":20428,"BSTAR":-2.0862321e-5,"MEAN_MOTION_DOT":-6.2e-6,"MEAN_MOTION_DDOT":0}]
